SL-3 R/B                
1 13403U 82079B   26049.56851000  .00005415  00000+0  21749-3 0  9993
2 13403  81.1449 215.6492 0024318 229.9846 129.9254 15.24493212374781
SL-14 R/B               
1 13553U 82092B   26049.39457872  .00000528  00000+0  56539-4 0  9990
2 13553  82.5710 159.4415 0020494   9.6874  55.6856 14.86644920326060
SL-3 R/B                
1 13819U 83010B   26049.40818812  .00014860  00000+0  30577-3 0  9990
2 13819  81.1032  25.8715 0018556 111.6981 248.6242 15.45625800354960
SL-3 R/B                
1 14208U 83075B   26049.56089746  .00010670  00000+0  28663-3 0  9995
2 14208  97.6129  53.4230 0019968 301.3306  58.5983 15.37912791327215
COSMOS 1536             
1 14699U 84013A   26049.60925013  .00005325  00000+0  22091-3 0  9993
2 14699  82.5462 126.8116 0013946 355.7250   4.3866 15.23554861269715
SL-14 R/B               
1 14820U 84027B   26049.56919231  .00000396  00000+0  42481-4 0  9993
2 14820  82.5385 262.9503 0018969  40.5349 319.7276 14.85956218244793
SL-8 R/B                
1 15483U 85006B   26049.19298161  .00000193  00000+0  72832-4 0  9996
2 15483  74.0456 297.0254 0019206 218.8902 292.1161 14.37773271151221
SL-12 R/B(2)            
1 15772U 85042D   26049.63911882  .00000122  00000+0  76225-4 0  9990
2 15772  71.1081 127.9783 0034311 158.9926 306.5241 14.21976991111688
SL-14 R/B               
1 15945U 85069B   26049.49243921  .00000511  00000+0  55065-4 0  9998
2 15945  82.5249  42.9866 0017179 255.0251 104.9065 14.86409225169985
SL-16 R/B               
1 16182U 85097B   26049.57125152 -.00000027  00000+0  10639-4 0  9998
2 16182  71.0027 180.8003 0009708 281.5702 155.6356 14.16594339 84521
SL-14 R/B               
1 16496U 86006B   26049.60913900  .00000592  00000+0  60340-4 0  9997
2 16496  82.5249 277.6985 0076042 337.0864  22.6965 14.86788989146371
COSMOS 1743             
1 16719U 86034A   26049.56409714  .00030965  00000+0  42575-3 0  9990
2 16719  82.5306  93.8818 0004138  22.8959 337.2479 15.57119284177270
