CCSDS_OMM_VERS = 2.0
CREATION_DATE  = 
ORIGINATOR     = 

OBJECT_NAME    = SL-3 R/B
OBJECT_ID      = 1982-079B
CENTER_NAME    = EARTH
REF_FRAME      = TEME
TIME_SYSTEM    = UTC
MEAN_ELEMENT_THEORY = SGP/SGP4

EPOCH          = 2026-02-18T13:38:39.264000
MEAN_MOTION    = 15.24493212
ECCENTRICITY   = .00243183
INCLINATION    = 81.1449
RA_OF_ASC_NODE = 215.6492
ARG_OF_PERICENTER = 229.9846
MEAN_ANOMALY   = 129.9254

EPHEMERIS_TYPE = 0
CLASSIFICATION_TYPE = U
NORAD_CAT_ID   = 13403
ELEMENT_SET_NO = 999
REV_AT_EPOCH   = 37478
BSTAR          = .21749249E-3
MEAN_MOTION_DOT = .5415E-4
MEAN_MOTION_DDOT = 0

CCSDS_OMM_VERS = 2.0
CREATION_DATE  = 
ORIGINATOR     = 

OBJECT_NAME    = SL-14 R/B
OBJECT_ID      = 1982-092B
CENTER_NAME    = EARTH
REF_FRAME      = TEME
TIME_SYSTEM    = UTC
MEAN_ELEMENT_THEORY = SGP/SGP4

EPOCH          = 2026-02-18T09:28:11.601408
MEAN_MOTION    = 14.86644920
ECCENTRICITY   = .00204946
INCLINATION    = 82.5710
RA_OF_ASC_NODE = 159.4415
ARG_OF_PERICENTER = 9.6874
MEAN_ANOMALY   = 55.6856

EPHEMERIS_TYPE = 0
CLASSIFICATION_TYPE = U
NORAD_CAT_ID   = 13553
ELEMENT_SET_NO = 999
REV_AT_EPOCH   = 32606
BSTAR          = .56539022E-4
MEAN_MOTION_DOT = .528E-5
MEAN_MOTION_DDOT = 0

CCSDS_OMM_VERS = 2.0
CREATION_DATE  = 
ORIGINATOR     = 

OBJECT_NAME    = SL-3 R/B
OBJECT_ID      = 1983-010B
CENTER_NAME    = EARTH
REF_FRAME      = TEME
TIME_SYSTEM    = UTC
MEAN_ELEMENT_THEORY = SGP/SGP4

EPOCH          = 2026-02-18T09:47:47.453568
MEAN_MOTION    = 15.45625800
ECCENTRICITY   = .00185569
INCLINATION    = 81.1032
RA_OF_ASC_NODE = 25.8715
ARG_OF_PERICENTER = 111.6981
MEAN_ANOMALY   = 248.6242

EPHEMERIS_TYPE = 0
CLASSIFICATION_TYPE = U
NORAD_CAT_ID   = 13819
ELEMENT_SET_NO = 999
REV_AT_EPOCH   = 35496
BSTAR          = .30577181E-3
MEAN_MOTION_DOT = .1486E-3
MEAN_MOTION_DDOT = 0

CCSDS_OMM_VERS = 2.0
CREATION_DATE  = 
ORIGINATOR     = 

OBJECT_NAME    = SL-3 R/B
OBJECT_ID      = 1983-075B
CENTER_NAME    = EARTH
REF_FRAME      = TEME
TIME_SYSTEM    = UTC
MEAN_ELEMENT_THEORY = SGP/SGP4

EPOCH          = 2026-02-18T13:27:41.540544
MEAN_MOTION    = 15.37912791
ECCENTRICITY   = .00199688
INCLINATION    = 97.6129
RA_OF_ASC_NODE = 53.4230
ARG_OF_PERICENTER = 301.3306
MEAN_ANOMALY   = 58.5983

EPHEMERIS_TYPE = 0
CLASSIFICATION_TYPE = U
NORAD_CAT_ID   = 14208
ELEMENT_SET_NO = 999
REV_AT_EPOCH   = 32721
BSTAR          = .28663128E-3
MEAN_MOTION_DOT = .1067E-3
MEAN_MOTION_DDOT = 0

CCSDS_OMM_VERS = 2.0
CREATION_DATE  = 
ORIGINATOR     = 

OBJECT_NAME    = COSMOS 1536
OBJECT_ID      = 1984-013A
CENTER_NAME    = EARTH
REF_FRAME      = TEME
TIME_SYSTEM    = UTC
MEAN_ELEMENT_THEORY = SGP/SGP4

EPOCH          = 2026-02-18T14:37:19.211232
MEAN_MOTION    = 15.23554861
ECCENTRICITY   = .00139463
INCLINATION    = 82.5462
RA_OF_ASC_NODE = 126.8116
ARG_OF_PERICENTER = 355.7250
MEAN_ANOMALY   = 4.3866

EPHEMERIS_TYPE = 0
CLASSIFICATION_TYPE = U
NORAD_CAT_ID   = 14699
ELEMENT_SET_NO = 999
REV_AT_EPOCH   = 26971
BSTAR          = .22091496E-3
MEAN_MOTION_DOT = .5325E-4
MEAN_MOTION_DDOT = 0

CCSDS_OMM_VERS = 2.0
CREATION_DATE  = 
ORIGINATOR     = 

OBJECT_NAME    = SL-14 R/B
OBJECT_ID      = 1984-027B
CENTER_NAME    = EARTH
REF_FRAME      = TEME
TIME_SYSTEM    = UTC
MEAN_ELEMENT_THEORY = SGP/SGP4

EPOCH          = 2026-02-18T13:39:38.215584
MEAN_MOTION    = 14.85956218
ECCENTRICITY   = .00189691
INCLINATION    = 82.5385
RA_OF_ASC_NODE = 262.9503
ARG_OF_PERICENTER = 40.5349
MEAN_ANOMALY   = 319.7276

EPHEMERIS_TYPE = 0
CLASSIFICATION_TYPE = U
NORAD_CAT_ID   = 14820
ELEMENT_SET_NO = 999
REV_AT_EPOCH   = 24479
BSTAR          = .42481319E-4
MEAN_MOTION_DOT = .396E-5
MEAN_MOTION_DDOT = 0

CCSDS_OMM_VERS = 2.0
CREATION_DATE  = 
ORIGINATOR     = 

OBJECT_NAME    = SL-8 R/B
OBJECT_ID      = 1985-006B
CENTER_NAME    = EARTH
REF_FRAME      = TEME
TIME_SYSTEM    = UTC
MEAN_ELEMENT_THEORY = SGP/SGP4

EPOCH          = 2026-02-18T04:37:53.611104
MEAN_MOTION    = 14.37773271
ECCENTRICITY   = .00192068
INCLINATION    = 74.0456
RA_OF_ASC_NODE = 297.0254
ARG_OF_PERICENTER = 218.8902
MEAN_ANOMALY   = 292.1161

EPHEMERIS_TYPE = 0
CLASSIFICATION_TYPE = U
NORAD_CAT_ID   = 15483
ELEMENT_SET_NO = 999
REV_AT_EPOCH   = 15122
BSTAR          = .72831739E-4
MEAN_MOTION_DOT = .193E-5
MEAN_MOTION_DDOT = 0

CCSDS_OMM_VERS = 2.0
CREATION_DATE  = 
ORIGINATOR     = 

OBJECT_NAME    = SL-12 R/B(2)
OBJECT_ID      = 1985-042D
CENTER_NAME    = EARTH
REF_FRAME      = TEME
TIME_SYSTEM    = UTC
MEAN_ELEMENT_THEORY = SGP/SGP4

EPOCH          = 2026-02-18T15:20:19.866048
MEAN_MOTION    = 14.21976991
ECCENTRICITY   = .00343114
INCLINATION    = 71.1081
RA_OF_ASC_NODE = 127.9783
ARG_OF_PERICENTER = 158.9926
MEAN_ANOMALY   = 306.5241

EPHEMERIS_TYPE = 0
CLASSIFICATION_TYPE = U
NORAD_CAT_ID   = 15772
ELEMENT_SET_NO = 999
REV_AT_EPOCH   = 11168
BSTAR          = .76224928E-4
MEAN_MOTION_DOT = .122E-5
MEAN_MOTION_DDOT = 0

CCSDS_OMM_VERS = 2.0
CREATION_DATE  = 
ORIGINATOR     = 

OBJECT_NAME    = SL-14 R/B
OBJECT_ID      = 1985-069B
CENTER_NAME    = EARTH
REF_FRAME      = TEME
TIME_SYSTEM    = UTC
MEAN_ELEMENT_THEORY = SGP/SGP4

EPOCH          = 2026-02-18T11:49:06.747744
MEAN_MOTION    = 14.86409225
ECCENTRICITY   = .00171796
INCLINATION    = 82.5249
RA_OF_ASC_NODE = 42.9866
ARG_OF_PERICENTER = 255.0251
MEAN_ANOMALY   = 104.9065

EPHEMERIS_TYPE = 0
CLASSIFICATION_TYPE = U
NORAD_CAT_ID   = 15945
ELEMENT_SET_NO = 999
REV_AT_EPOCH   = 16998
BSTAR          = .55065109E-4
MEAN_MOTION_DOT = .511E-5
MEAN_MOTION_DDOT = 0

CCSDS_OMM_VERS = 2.0
CREATION_DATE  = 
ORIGINATOR     = 

OBJECT_NAME    = SL-16 R/B
OBJECT_ID      = 1985-097B
CENTER_NAME    = EARTH
REF_FRAME      = TEME
TIME_SYSTEM    = UTC
MEAN_ELEMENT_THEORY = SGP/SGP4

EPOCH          = 2026-02-18T13:42:36.131328
MEAN_MOTION    = 14.16594339
ECCENTRICITY   = .00097081
INCLINATION    = 71.0027
RA_OF_ASC_NODE = 180.8003
ARG_OF_PERICENTER = 281.5702
MEAN_ANOMALY   = 155.6356

EPHEMERIS_TYPE = 0
CLASSIFICATION_TYPE = U
NORAD_CAT_ID   = 16182
ELEMENT_SET_NO = 999
REV_AT_EPOCH   = 8452
BSTAR          = .1063871E-4
MEAN_MOTION_DOT = -.27E-6
MEAN_MOTION_DDOT = 0

CCSDS_OMM_VERS = 2.0
CREATION_DATE  = 
ORIGINATOR     = 

OBJECT_NAME    = SL-14 R/B
OBJECT_ID      = 1986-006B
CENTER_NAME    = EARTH
REF_FRAME      = TEME
TIME_SYSTEM    = UTC
MEAN_ELEMENT_THEORY = SGP/SGP4

EPOCH          = 2026-02-18T14:37:09.609600
MEAN_MOTION    = 14.86788989
ECCENTRICITY   = .0076042
INCLINATION    = 82.5249
RA_OF_ASC_NODE = 277.6985
ARG_OF_PERICENTER = 337.0864
MEAN_ANOMALY   = 22.6965

EPHEMERIS_TYPE = 0
CLASSIFICATION_TYPE = U
NORAD_CAT_ID   = 16496
ELEMENT_SET_NO = 999
REV_AT_EPOCH   = 14637
BSTAR          = .60339579E-4
MEAN_MOTION_DOT = .592E-5
MEAN_MOTION_DDOT = 0

CCSDS_OMM_VERS = 2.0
CREATION_DATE  = 
ORIGINATOR     = 

OBJECT_NAME    = COSMOS 1743
OBJECT_ID      = 1986-034A
CENTER_NAME    = EARTH
REF_FRAME      = TEME
TIME_SYSTEM    = UTC
MEAN_ELEMENT_THEORY = SGP/SGP4

EPOCH          = 2026-02-18T13:32:17.992896
MEAN_MOTION    = 15.57119284
ECCENTRICITY   = .00041381
INCLINATION    = 82.5306
RA_OF_ASC_NODE = 93.8818
ARG_OF_PERICENTER = 22.8959
MEAN_ANOMALY   = 337.2479

EPHEMERIS_TYPE = 0
CLASSIFICATION_TYPE = U
NORAD_CAT_ID   = 16719
ELEMENT_SET_NO = 999
REV_AT_EPOCH   = 17727
BSTAR          = .42574527E-3
MEAN_MOTION_DOT = .30965E-3
MEAN_MOTION_DDOT = 0

